ISS OBJECT YC           
1 67686U 98067YC  26064.08285944  .00055661  00000+0  90337-3 0  9998
2 67686  51.6311  94.6478 0007743 134.4449 225.7176 15.52157473  4071
LEOPARD                 
1 67687U 98067YD  26063.31561112  .00056781  00000+0  94368-3 0  9990
2 67687  51.6306  98.5236 0007781 136.2386 223.9221 15.51484974  3879
ISS OBJECT YE           
1 67688U 98067YE  26063.50513603  .00064836  00000+0  10599-2 0  9997
2 67688  51.6315  97.5383 0007786 134.7310 225.4314 15.51890022  3906
PRC TEST SPACECRAFT 4   
1 67689U 26024A   26064.27295066  .00000236  00000+0  47173-4 0  9991
2 67689  49.9860  43.5045 0006099 343.1997  16.8741 14.91684198  3927
CZ-2F R/B               
1 67690U 26024B   26064.27411214  .00021813  00000+0  39950-3 0  9995
2 67690  49.9877  36.7422 0174896 256.5805 101.5608 15.34128164  4015
CZ-2F DEB               
1 67691U 26024C   26064.29387078  .01325722  11023-4  76524-3 0  9995
2 67691  49.9033  28.1644 0147733 271.1394  87.2669 15.98259881  4116
CZ-2F DEB               
1 67692U 26024D   26064.28415965  .00251314  00000+0  44561-2 0  9999
2 67692  50.3186  40.3200 0237803 262.6877  94.7000 15.23642600  3951
STARLINK-36748          
1 67693U 26025A   26064.28558478  .00176653  00000+0  11573-2 0  9997
2 67693  97.2835 175.6002 0001606  67.9280 292.2156 15.75262076  5242
STARLINK-36753          
1 67694U 26025B   26064.15101200  .00081481  00000+0  62673-3 0  9993
2 67694  97.2834 175.4766 0016195 150.6426 209.5751 15.71597631  5233
STARLINK-36750          
1 67695U 26025C   26064.24858923  .00401198  00000+0  19907-2 0  9997
2 67695  97.2837 175.6515 0001258 166.0920 194.0383 15.80922603  5246
STARLINK-36401          
1 67696U 26025D   26064.26405737  .00254771  00000+0  16519-2 0  9990
2 67696  97.2851 175.6299 0001337  62.6277 297.5124 15.75282581  5246
STARLINK-36704          
1 67697U 26025E   26064.21217653  .00291781  00000+0  18867-2 0  9994
2 67697  97.2847 175.5449 0001603  56.2301 303.9117 15.75242687  5237
